HAWK-2A                 
1 47505U 21006CW  26068.67946547  .00008113  00000+0  25431-3 0  9990
2 47505  97.2459 115.6184 0006450 187.1463 172.9689 15.33304498284242
STARLINK-35480          
1 66242U 25245J   26068.83102196  .00023616  00000+0  80686-3 0  9998
2 66242  53.1566 283.5602 0001008 139.7045 220.4031 15.30202658 21278
