[{"OBJECT_NAME":"HAWK-2A","OBJECT_ID":"2021-006CW","EPOCH":"2026-03-09T16:18:25.817472","MEAN_MOTION":15.33304498,"ECCENTRICITY":0.00064498,"INCLINATION":97.2459,"RA_OF_ASC_NODE":115.6184,"ARG_OF_PERICENTER":187.1463,"MEAN_ANOMALY":172.9689,"EPHEMERIS_TYPE":0,"CLASSIFICATION_TYPE":"U","NORAD_CAT_ID":47505,"ELEMENT_SET_NO":999,"REV_AT_EPOCH":28424,"BSTAR":0.0002543136,"MEAN_MOTION_DOT":8.113e-5,"MEAN_MOTION_DDOT":0},{"OBJECT_NAME":"STARLINK-35480","OBJECT_ID":"2025-245J","EPOCH":"2026-03-09T19:56:40.297344","MEAN_MOTION":15.30202658,"ECCENTRICITY":0.00010085,"INCLINATION":53.1566,"RA_OF_ASC_NODE":283.5602,"ARG_OF_PERICENTER":139.7045,"MEAN_ANOMALY":220.4031,"EPHEMERIS_TYPE":0,"CLASSIFICATION_TYPE":"U","NORAD_CAT_ID":66242,"ELEMENT_SET_NO":999,"REV_AT_EPOCH":2127,"BSTAR":0.00080686258,"MEAN_MOTION_DOT":0.00023616,"MEAN_MOTION_DDOT":0}]
